<?xml version="1.0" encoding="UTF-8"?>
<ndm xmlns:xsi="http://www.w3.org/2001/XMLSchema-instance" xsi:noNamespaceSchemaLocation="https://sanaregistry.org/r/ndmxml_unqualified/ndmxml-2.0.0-master-2.0.xsd">
<omm id="CCSDS_OMM_VERS" version="2.0">
<header><CREATION_DATE/><ORIGINATOR/></header><body><segment><metadata><OBJECT_NAME>KUIPER-00044</OBJECT_NAME><OBJECT_ID>2025-134F</OBJECT_ID><CENTER_NAME>EARTH</CENTER_NAME><REF_FRAME>TEME</REF_FRAME><TIME_SYSTEM>UTC</TIME_SYSTEM><MEAN_ELEMENT_THEORY>SGP4</MEAN_ELEMENT_THEORY></metadata><data><meanElements><EPOCH>2026-01-04T22:25:40.629792</EPOCH><MEAN_MOTION>14.79940726</MEAN_MOTION><ECCENTRICITY>.00120908</ECCENTRICITY><INCLINATION>51.8978</INCLINATION><RA_OF_ASC_NODE>168.5174</RA_OF_ASC_NODE><ARG_OF_PERICENTER>64.4420</ARG_OF_PERICENTER><MEAN_ANOMALY>295.7791</MEAN_ANOMALY></meanElements><tleParameters><EPHEMERIS_TYPE>0</EPHEMERIS_TYPE><CLASSIFICATION_TYPE>U</CLASSIFICATION_TYPE><NORAD_CAT_ID>64505</NORAD_CAT_ID><ELEMENT_SET_NO>999</ELEMENT_SET_NO><REV_AT_EPOCH>3044</REV_AT_EPOCH><BSTAR>.4973063E-3</BSTAR><MEAN_MOTION_DOT>.3574E-4</MEAN_MOTION_DOT><MEAN_MOTION_DDOT>0</MEAN_MOTION_DDOT></tleParameters></data></segment></body></omm>
<omm id="CCSDS_OMM_VERS" version="2.0">
<header><CREATION_DATE/><ORIGINATOR/></header><body><segment><metadata><OBJECT_NAME>KUIPER-00046</OBJECT_NAME><OBJECT_ID>2025-134G</OBJECT_ID><CENTER_NAME>EARTH</CENTER_NAME><REF_FRAME>TEME</REF_FRAME><TIME_SYSTEM>UTC</TIME_SYSTEM><MEAN_ELEMENT_THEORY>SGP4</MEAN_ELEMENT_THEORY></metadata><data><meanElements><EPOCH>2026-01-04T18:47:36.529152</EPOCH><MEAN_MOTION>14.80775485</MEAN_MOTION><ECCENTRICITY>.00131481</ECCENTRICITY><INCLINATION>51.8981</INCLINATION><RA_OF_ASC_NODE>165.4385</RA_OF_ASC_NODE><ARG_OF_PERICENTER>71.8066</ARG_OF_PERICENTER><MEAN_ANOMALY>288.4327</MEAN_ANOMALY></meanElements><tleParameters><EPHEMERIS_TYPE>0</EPHEMERIS_TYPE><CLASSIFICATION_TYPE>U</CLASSIFICATION_TYPE><NORAD_CAT_ID>64506</NORAD_CAT_ID><ELEMENT_SET_NO>999</ELEMENT_SET_NO><REV_AT_EPOCH>3047</REV_AT_EPOCH><BSTAR>.54780295E-3</BSTAR><MEAN_MOTION_DOT>.4043E-4</MEAN_MOTION_DOT><MEAN_MOTION_DDOT>0</MEAN_MOTION_DDOT></tleParameters></data></segment></body></omm>
<omm id="CCSDS_OMM_VERS" version="2.0">
<header><CREATION_DATE/><ORIGINATOR/></header><body><segment><metadata><OBJECT_NAME>KUIPER-00047</OBJECT_NAME><OBJECT_ID>2025-134H</OBJECT_ID><CENTER_NAME>EARTH</CENTER_NAME><REF_FRAME>TEME</REF_FRAME><TIME_SYSTEM>UTC</TIME_SYSTEM><MEAN_ELEMENT_THEORY>SGP4</MEAN_ELEMENT_THEORY></metadata><data><meanElements><EPOCH>2026-01-05T00:00:00.999648</EPOCH><MEAN_MOTION>14.76555168</MEAN_MOTION><ECCENTRICITY>.000072</ECCENTRICITY><INCLINATION>51.8986</INCLINATION><RA_OF_ASC_NODE>136.1522</RA_OF_ASC_NODE><ARG_OF_PERICENTER>324.0046</ARG_OF_PERICENTER><MEAN_ANOMALY>208.9195</MEAN_ANOMALY></meanElements><tleParameters><EPHEMERIS_TYPE>0</EPHEMERIS_TYPE><CLASSIFICATION_TYPE>U</CLASSIFICATION_TYPE><NORAD_CAT_ID>64507</NORAD_CAT_ID><ELEMENT_SET_NO>999</ELEMENT_SET_NO><REV_AT_EPOCH>564</REV_AT_EPOCH><BSTAR>-.41373411E-2</BSTAR><MEAN_MOTION_DOT>-.29208E-3</MEAN_MOTION_DOT><MEAN_MOTION_DDOT>0</MEAN_MOTION_DDOT></tleParameters></data></segment></body></omm>
<omm id="CCSDS_OMM_VERS" version="2.0">
<header><CREATION_DATE/><ORIGINATOR/></header><body><segment><metadata><OBJECT_NAME>KUIPER-00048</OBJECT_NAME><OBJECT_ID>2025-134J</OBJECT_ID><CENTER_NAME>EARTH</CENTER_NAME><REF_FRAME>TEME</REF_FRAME><TIME_SYSTEM>UTC</TIME_SYSTEM><MEAN_ELEMENT_THEORY>SGP4</MEAN_ELEMENT_THEORY></metadata><data><meanElements><EPOCH>2026-01-04T15:08:21.653952</EPOCH><MEAN_MOTION>14.79915213</MEAN_MOTION><ECCENTRICITY>.0002403</ECCENTRICITY><INCLINATION>51.8992</INCLINATION><RA_OF_ASC_NODE>138.8507</RA_OF_ASC_NODE><ARG_OF_PERICENTER>211.1818</ARG_OF_PERICENTER><MEAN_ANOMALY>148.9002</MEAN_ANOMALY></meanElements><tleParameters><EPHEMERIS_TYPE>0</EPHEMERIS_TYPE><CLASSIFICATION_TYPE>U</CLASSIFICATION_TYPE><NORAD_CAT_ID>64508</NORAD_CAT_ID><ELEMENT_SET_NO>999</ELEMENT_SET_NO><REV_AT_EPOCH>3083</REV_AT_EPOCH><BSTAR>.66105E-3</BSTAR><MEAN_MOTION_DOT>.482E-4</MEAN_MOTION_DOT><MEAN_MOTION_DDOT>0</MEAN_MOTION_DDOT></tleParameters></data></segment></body></omm>
<omm id="CCSDS_OMM_VERS" version="2.0">
<header><CREATION_DATE/><ORIGINATOR/></header><body><segment><metadata><OBJECT_NAME>KUIPER-00049</OBJECT_NAME><OBJECT_ID>2025-134K</OBJECT_ID><CENTER_NAME>EARTH</CENTER_NAME><REF_FRAME>TEME</REF_FRAME><TIME_SYSTEM>UTC</TIME_SYSTEM><MEAN_ELEMENT_THEORY>SGP4</MEAN_ELEMENT_THEORY></metadata><data><meanElements><EPOCH>2026-01-04T18:00:59.178816</EPOCH><MEAN_MOTION>14.79938079</MEAN_MOTION><ECCENTRICITY>.00030505</ECCENTRICITY><INCLINATION>51.8992</INCLINATION><RA_OF_ASC_NODE>151.7911</RA_OF_ASC_NODE><ARG_OF_PERICENTER>87.4575</ARG_OF_PERICENTER><MEAN_ANOMALY>272.6737</MEAN_ANOMALY></meanElements><tleParameters><EPHEMERIS_TYPE>0</EPHEMERIS_TYPE><CLASSIFICATION_TYPE>U</CLASSIFICATION_TYPE><NORAD_CAT_ID>64509</NORAD_CAT_ID><ELEMENT_SET_NO>999</ELEMENT_SET_NO><REV_AT_EPOCH>3066</REV_AT_EPOCH><BSTAR>.34114929E-3</BSTAR><MEAN_MOTION_DOT>.238E-4</MEAN_MOTION_DOT><MEAN_MOTION_DDOT>0</MEAN_MOTION_DDOT></tleParameters></data></segment></body></omm>
<omm id="CCSDS_OMM_VERS" version="2.0">
<header><CREATION_DATE/><ORIGINATOR/></header><body><segment><metadata><OBJECT_NAME>KUIPER-00050</OBJECT_NAME><OBJECT_ID>2025-134L</OBJECT_ID><CENTER_NAME>EARTH</CENTER_NAME><REF_FRAME>TEME</REF_FRAME><TIME_SYSTEM>UTC</TIME_SYSTEM><MEAN_ELEMENT_THEORY>SGP4</MEAN_ELEMENT_THEORY></metadata><data><meanElements><EPOCH>2026-01-04T17:54:58.901184</EPOCH><MEAN_MOTION>14.96905734</MEAN_MOTION><ECCENTRICITY>.00049538</ECCENTRICITY><INCLINATION>51.8900</INCLINATION><RA_OF_ASC_NODE>142.5337</RA_OF_ASC_NODE><ARG_OF_PERICENTER>103.8998</ARG_OF_PERICENTER><MEAN_ANOMALY>256.2523</MEAN_ANOMALY></meanElements><tleParameters><EPHEMERIS_TYPE>0</EPHEMERIS_TYPE><CLASSIFICATION_TYPE>U</CLASSIFICATION_TYPE><NORAD_CAT_ID>64510</NORAD_CAT_ID><ELEMENT_SET_NO>999</ELEMENT_SET_NO><REV_AT_EPOCH>3079</REV_AT_EPOCH><BSTAR>.69415559E-3</BSTAR><MEAN_MOTION_DOT>.7806E-4</MEAN_MOTION_DOT><MEAN_MOTION_DDOT>0</MEAN_MOTION_DDOT></tleParameters></data></segment></body></omm>
<omm id="CCSDS_OMM_VERS" version="2.0">
<header><CREATION_DATE/><ORIGINATOR/></header><body><segment><metadata><OBJECT_NAME>KUIPER-00051</OBJECT_NAME><OBJECT_ID>2025-134M</OBJECT_ID><CENTER_NAME>EARTH</CENTER_NAME><REF_FRAME>TEME</REF_FRAME><TIME_SYSTEM>UTC</TIME_SYSTEM><MEAN_ELEMENT_THEORY>SGP4</MEAN_ELEMENT_THEORY></metadata><data><meanElements><EPOCH>2026-01-04T16:27:35.750880</EPOCH><MEAN_MOTION>14.79950812</MEAN_MOTION><ECCENTRICITY>.00029145</ECCENTRICITY><INCLINATION>51.8996</INCLINATION><RA_OF_ASC_NODE>149.6493</RA_OF_ASC_NODE><ARG_OF_PERICENTER>95.9505</ARG_OF_PERICENTER><MEAN_ANOMALY>264.1790</MEAN_ANOMALY></meanElements><tleParameters><EPHEMERIS_TYPE>0</EPHEMERIS_TYPE><CLASSIFICATION_TYPE>U</CLASSIFICATION_TYPE><NORAD_CAT_ID>64511</NORAD_CAT_ID><ELEMENT_SET_NO>999</ELEMENT_SET_NO><REV_AT_EPOCH>3068</REV_AT_EPOCH><BSTAR>.13428284E-3</BSTAR><MEAN_MOTION_DOT>.802E-5</MEAN_MOTION_DOT><MEAN_MOTION_DDOT>0</MEAN_MOTION_DDOT></tleParameters></data></segment></body></omm>
<omm id="CCSDS_OMM_VERS" version="2.0">
<header><CREATION_DATE/><ORIGINATOR/></header><body><segment><metadata><OBJECT_NAME>KUIPER-00052</OBJECT_NAME><OBJECT_ID>2025-134N</OBJECT_ID><CENTER_NAME>EARTH</CENTER_NAME><REF_FRAME>TEME</REF_FRAME><TIME_SYSTEM>UTC</TIME_SYSTEM><MEAN_ELEMENT_THEORY>SGP4</MEAN_ELEMENT_THEORY></metadata><data><meanElements><EPOCH>2026-01-05T00:00:00.999648</EPOCH><MEAN_MOTION>15.77228476</MEAN_MOTION><ECCENTRICITY>.00017008</ECCENTRICITY><INCLINATION>51.8598</INCLINATION><RA_OF_ASC_NODE>75.8840</RA_OF_ASC_NODE><ARG_OF_PERICENTER>87.5182</ARG_OF_PERICENTER><MEAN_ANOMALY>267.7355</MEAN_ANOMALY></meanElements><tleParameters><EPHEMERIS_TYPE>0</EPHEMERIS_TYPE><CLASSIFICATION_TYPE>U</CLASSIFICATION_TYPE><NORAD_CAT_ID>64512</NORAD_CAT_ID><ELEMENT_SET_NO>999</ELEMENT_SET_NO><REV_AT_EPOCH>394</REV_AT_EPOCH><BSTAR>.76281141E-3</BSTAR><MEAN_MOTION_DOT>.129129E-2</MEAN_MOTION_DOT><MEAN_MOTION_DDOT>0</MEAN_MOTION_DDOT></tleParameters></data></segment></body></omm>

</ndm>
