KUIPER-00044            
1 64505U 25134F   26004.93449803  .00003574  00000+0  49731-3 0  9992
2 64505  51.8978 168.5174 0012090  64.4420 295.7791 14.79940726 30444
KUIPER-00046            
1 64506U 25134G   26004.78306168  .00004043  00000+0  54780-3 0  9994
2 64506  51.8981 165.4385 0013148  71.8066 288.4327 14.80775485 30479
KUIPER-00047            
1 64507U 25134H   26005.00001157 -.00029208  00000+0 -41373-2 0  9996
2 64507  51.8986 136.1522 0000720 324.0046 208.9195 14.76555168  5646
KUIPER-00048            
1 64508U 25134J   26004.63080618  .00004820  00000+0  66105-3 0  9996
2 64508  51.8992 138.8507 0002403 211.1818 148.9002 14.79915213 30832
KUIPER-00049            
1 64509U 25134K   26004.75068494  .00002380  00000+0  34115-3 0  9993
2 64509  51.8992 151.7911 0003050  87.4575 272.6737 14.79938079 30665
KUIPER-00050            
1 64510U 25134L   26004.74651506  .00007806  00000+0  69416-3 0  9996
2 64510  51.8900 142.5337 0004953 103.8998 256.2523 14.96905734 30797
KUIPER-00051            
1 64511U 25134M   26004.68583045  .00000802  00000+0  13428-3 0  9993
2 64511  51.8996 149.6493 0002914  95.9505 264.1790 14.79950812 30684
KUIPER-00052            
1 64512U 25134N   26005.00001157  .00129129  00000+0  76281-3 0  9990
2 64512  51.8598  75.8840 0001700  87.5182 267.7355 15.77228476  3947
